{
    "links": {
        "self": "http://www.neowsapp.com/rest/v1/neo/3774135?api_key=iIulBulltgU6a56xZRHN4H3l9WmuAYTsLGpBGhQ2"
    },
    "id": "3774135",
    "neo_reference_id": "3774135",
    "name": "(2017 HU4)",
    "designation": "2017 HU4",
    "nasa_jpl_url": "http://ssd.jpl.nasa.gov/sbdb.cgi?sstr=3774135",
    "absolute_magnitude_h": 22.4,
    "estimated_diameter": {
        "kilometers": {
            "estimated_diameter_min": 0.0880146521,
            "estimated_diameter_max": 0.1968067451
        },
        "meters": {
            "estimated_diameter_min": 88.0146520901,
            "estimated_diameter_max": 196.8067450894
        },
        "miles": {
            "estimated_diameter_min": 0.0546897524,
            "estimated_diameter_max": 0.122290004
        },
        "feet": {
            "estimated_diameter_min": 288.7619911632,
            "estimated_diameter_max": 645.6914415591
        }
    },
    "is_potentially_hazardous_asteroid": false,
    "close_approach_data": [
        {
            "close_approach_date": "2017-05-22",
            "close_approach_date_full": "2017-May-22 13:34",
            "epoch_date_close_approach": 1495460040000,
            "relative_velocity": {
                "kilometers_per_second": "2.8551238075",
                "kilometers_per_hour": "10278.4457069548",
                "miles_per_hour": "6386.6264449687"
            },
            "miss_distance": {
                "astronomical": "0.2923784813",
                "lunar": "113.7352292257",
                "kilometers": "43739198.036314831",
                "miles": "27178277.3862974278"
            },
            "orbiting_body": "Earth"
        },
        {
            "close_approach_date": "2176-05-22",
            "close_approach_date_full": "2176-May-22 23:22",
            "epoch_date_close_approach": 6513088920000,
            "relative_velocity": {
                "kilometers_per_second": "2.6448602353",
                "kilometers_per_hour": "9521.4968470948",
                "miles_per_hour": "5916.2878603517"
            },
            "miss_distance": {
                "astronomical": "0.3151009598",
                "lunar": "122.5742733622",
                "kilometers": "47138432.421035626",
                "miles": "29290463.6895825988"
            },
            "orbiting_body": "Earth"
        }
    ],
    "orbital_data": {
        "orbit_id": "8",
        "orbit_determination_date": "2017-06-18 06:17:35",
        "first_observation_date": "2017-04-25",
        "last_observation_date": "2017-06-17",
        "data_arc_in_days": 53,
        "observations_used": 42,
        "orbit_uncertainty": "5",
        "minimum_orbit_intersection": ".270663",
        "jupiter_tisserand_invariant": "3.547",
        "epoch_osculation": "2459000.5",
        "eccentricity": ".4205072384463707",
        "semi_major_axis": "2.190909277935793",
        "inclination": "5.606100062408673",
        "ascending_node_longitude": "16.0007127004377",
        "orbital_period": "1184.499873301701",
        "perihelion_distance": "1.269616067784481",
        "perihelion_argument": "233.6469589144033",
        "aphelion_distance": "3.112202488087105",
        "perihelion_time": "2459096.874762171170",
        "mean_anomaly": "330.7092291323665",
        "mean_motion": ".3039257395583572",
        "equinox": "J2000",
        "orbit_class": {
            "orbit_class_type": "AMO",
            "orbit_class_description": "Near-Earth asteroid orbits similar to that of 1221 Amor",
            "orbit_class_range": "1.017 AU < q (perihelion) < 1.3 AU"
        }
    },
    "is_sentry_object": false
}